[{"OBJECT_NAME":"TIANYI D","OBJECT_ID":"2025-103D","EPOCH":"2026-03-09T23:34:58.761120","MEAN_MOTION":15.17585696,"ECCENTRICITY":0.00029978,"INCLINATION":97.3899,"RA_OF_ASC_NODE":142.5822,"ARG_OF_PERICENTER":153.0168,"MEAN_ANOMALY":207.1222,"EPHEMERIS_TYPE":0,"CLASSIFICATION_TYPE":"U","NORAD_CAT_ID":64051,"ELEMENT_SET_NO":999,"REV_AT_EPOCH":4495,"BSTAR":0.00030791157,"MEAN_MOTION_DOT":6.122e-5,"MEAN_MOTION_DDOT":0},{"OBJECT_NAME":"FENGYUN 1C DEB","OBJECT_ID":"1999-025FBT","EPOCH":"2026-03-07T08:06:46.128096","MEAN_MOTION":15.13951464,"ECCENTRICITY":0.0011424,"INCLINATION":98.245,"RA_OF_ASC_NODE":104.3614,"ARG_OF_PERICENTER":257.8823,"MEAN_ANOMALY":163.5702,"EPHEMERIS_TYPE":0,"CLASSIFICATION_TYPE":"U","NORAD_CAT_ID":47041,"ELEMENT_SET_NO":999,"REV_AT_EPOCH":72466,"BSTAR":0.0033934,"MEAN_MOTION_DOT":0.00062023,"MEAN_MOTION_DDOT":0}]
